{
    "links": {
        "self": "http://www.neowsapp.com/rest/v1/neo/3798982?api_key=iIulBulltgU6a56xZRHN4H3l9WmuAYTsLGpBGhQ2"
    },
    "id": "3798982",
    "neo_reference_id": "3798982",
    "name": "(2018 BP6)",
    "designation": "2018 BP6",
    "nasa_jpl_url": "http://ssd.jpl.nasa.gov/sbdb.cgi?sstr=3798982",
    "absolute_magnitude_h": 24.5,
    "estimated_diameter": {
        "kilometers": {
            "estimated_diameter_min": 0.0334622374,
            "estimated_diameter_max": 0.0748238376
        },
        "meters": {
            "estimated_diameter_min": 33.4622374455,
            "estimated_diameter_max": 74.8238376074
        },
        "miles": {
            "estimated_diameter_min": 0.0207924639,
            "estimated_diameter_max": 0.0464933628
        },
        "feet": {
            "estimated_diameter_min": 109.7842471007,
            "estimated_diameter_max": 245.4850393757
        }
    },
    "is_potentially_hazardous_asteroid": false,
    "close_approach_data": [
        {
            "close_approach_date": "2018-02-05",
            "close_approach_date_full": "2018-Feb-05 09:28",
            "epoch_date_close_approach": 1517822880000,
            "relative_velocity": {
                "kilometers_per_second": "12.8023528617",
                "kilometers_per_hour": "46088.4703020152",
                "miles_per_hour": "28637.5831162716"
            },
            "miss_distance": {
                "astronomical": "0.0070036932",
                "lunar": "2.7244366548",
                "kilometers": "1047737.584853484",
                "miles": "651033.9463827192"
            },
            "orbiting_body": "Moon"
        },
        {
            "close_approach_date": "2018-02-05",
            "close_approach_date_full": "2018-Feb-05 10:02",
            "epoch_date_close_approach": 1517824920000,
            "relative_velocity": {
                "kilometers_per_second": "13.7454400992",
                "kilometers_per_hour": "49483.5843571142",
                "miles_per_hour": "30747.1749578969"
            },
            "miss_distance": {
                "astronomical": "0.0094006924",
                "lunar": "3.6568693436",
                "kilometers": "1406323.559565188",
                "miles": "873848.9390000744"
            },
            "orbiting_body": "Earth"
        },
        {
            "close_approach_date": "2021-01-17",
            "close_approach_date_full": "2021-Jan-17 17:52",
            "epoch_date_close_approach": 1610905920000,
            "relative_velocity": {
                "kilometers_per_second": "21.4810457356",
                "kilometers_per_hour": "77331.7646481305",
                "miles_per_hour": "48050.9512059453"
            },
            "miss_distance": {
                "astronomical": "0.27688395",
                "lunar": "107.70785655",
                "kilometers": "41421249.1571865",
                "miles": "25737970.7407137"
            },
            "orbiting_body": "Earth"
        }
    ],
    "orbital_data": {
        "orbit_id": "7",
        "orbit_determination_date": "2018-02-15 06:21:12",
        "first_observation_date": "2018-01-27",
        "last_observation_date": "2018-02-06",
        "data_arc_in_days": 10,
        "observations_used": 66,
        "orbit_uncertainty": "7",
        "minimum_orbit_intersection": ".00535641",
        "jupiter_tisserand_invariant": "3.537",
        "epoch_osculation": "2459000.5",
        "eccentricity": ".5821671432430172",
        "semi_major_axis": "2.060747435386923",
        "inclination": "8.414587310534484",
        "ascending_node_longitude": "135.3006296114927",
        "orbital_period": "1080.526889281846",
        "perihelion_distance": ".8610479879823436",
        "perihelion_argument": "51.39217175244784",
        "aphelion_distance": "3.260446882791501",
        "perihelion_time": "2459270.607441303820",
        "mean_anomaly": "270.0080897255569",
        "mean_motion": ".3331707924818676",
        "equinox": "J2000",
        "orbit_class": {
            "orbit_class_type": "APO",
            "orbit_class_description": "Near-Earth asteroid orbits which cross the Earth’s orbit similar to that of 1862 Apollo",
            "orbit_class_range": "a (semi-major axis) > 1.0 AU; q (perihelion) < 1.017 AU"
        }
    },
    "is_sentry_object": false
}